CALSPHERE 1             
1 00900U 64063C   22331.09120153  .00000531  00000+0  55516-3 0  9993
2 00900  90.1839  43.9431 0025588 249.3729 182.0755 13.73982378892995
CALSPHERE 2             
1 00902U 64063E   22330.75388269  .00000079  00000+0  10531-3 0  9996
2 00902  90.1990  47.1308 0019586  41.7151  77.9767 13.52728379680714
LCS 1                   
1 01361U 65034C   22330.79412780  .00000005  00000+0 -41734-3 0  9994
2 01361  32.1459  19.8409 0011428  93.0908 267.0897  9.89301944 81301
TEMPSAT 1               
1 01512U 65065E   22330.68630279  .00000050  00000+0  83397-4 0  9990
2 01512  89.9251 217.3840 0068422 295.7788  90.3446 13.33462342786994
CALSPHERE 4A            
1 01520U 65065H   22330.97017574  .00000087  00000+0  14978-3 0  9996
2 01520  89.9800 129.9832 0069671 164.0992 317.1692 13.35917972789761
OPS 5712 (P/L 160)      
1 02826U 67053A   22330.81515656  .00002424  00000+0  62200-3 0  9990
2 02826  69.9282 267.9719 0002698 173.3063 186.8108 14.51446471876285
OPS 5712 (P/L 153)      
1 02874U 67053H   22330.88321311  .00000010  00000+0  45610-4 0  9999
2 02874  69.9751  17.2246 0004351  74.7480 285.4106 13.96429781825983
SURCAL 150B             
1 02909U 67053J   22330.79485546  .00003964  00000+0  74370-3 0  9994
2 02909  69.9470 249.3666 0003751 221.1473 138.9386 14.65466421887380
RIGIDSPHERE 2 (LCS 4)   
1 05398U 71067E   22331.10224212  .00000429  00000+0  14307-3 0  9993
2 05398  87.6206 338.1383 0061986 206.9422 152.8554 14.34404186687804
COSMOS 2493 (SKRL-756 1)
1 39490U 13078A   22331.47712696  .00001328  00000+0  13533-3 0  9998
2 39490  82.4187  77.9035 0015614 276.0927  83.8512 14.89914076484291
COSMOS 2494 (SKRL-756 2)
1 39491U 13078B   22331.49343766  .00001452  00000+0  14252-3 0  9996
2 39491  82.4190  71.3081 0020198 249.0993 110.8064 14.91403217484635
